NORAD_CAT_ID,OBJECT_NAME,OBJECT_TYPE,EPOCH,MEAN_MOTION,ECCENTRICITY,INCLINATION,RA_OF_ASC_NODE,ARG_OF_PERICENTER,MEAN_ANOMALY,BSTAR,MEAN_MOTION_DOT,MEAN_MOTION_DDOT,TLE_LINE0,TLE_LINE1,TLE_LINE2,SEMIMAJOR_AXIS,PERIOD,APOGEE,PERIGEE,DECAYED
52674.0,STARLINK-3936,PAYLOAD,2022-08-27 22:00:00,15.08859659,0.0002615,53.2188,184.1405,56.725,86.7451,-0.00089006,-0.00014434,0.0,0 STARLINK-3936,1 52674U 22053U   22239.91667824 -.00014434  00000-0 -89006-3 0  9991,2 52674  53.2188 184.1405 0002615  56.7250  86.7451 15.08859659  1306,6917.82,95.436,541.494,537.876,0.0
52674.0,STARLINK-3936,PAYLOAD,2022-08-28 06:00:00,15.08829299,0.0002703999999999,53.2186,182.6459,51.9759,103.1162,0.00044368,6.778e-05,0.0,0 STARLINK-3936,1 52674U 22053U   22240.25001157  .00006778  00000-0  44368-3 0  9993,2 52674  53.2186 182.6459 0002704  51.9759 103.1162 15.08829299 15952,6917.913000000001,95.438,541.649,537.9069999999998,0.0
52674.0,STARLINK-3936,PAYLOAD,2022-08-28 14:00:01,15.088312,0.0002555,53.2185,181.1481,54.8333,111.8461,-9.3593e-05,-1.777e-05,0.0,0 STARLINK-3936,1 52674U 22053U   22240.58334491 -.00001777  00000-0 -93593-4 0  9990,2 52674  53.2185 181.1481 0002555  54.8333 111.8461 15.08831200  1301,6917.906999999997,95.438,541.54,538.005,0.0
52674.0,STARLINK-3936,PAYLOAD,2022-08-28 22:00:00,15.0884695,0.0002603,53.2186,179.65200000000004,57.4593,120.7954,-0.00070866,-0.00011552,0.0,0 STARLINK-3936,1 52674U 22053U   22240.91667824 -.00011552  00000-0 -70866-3 0  9995,2 52674  53.2186 179.6520 0002603  57.4593 120.7954 15.08846950  1303,6917.859,95.437,541.525,537.923,0.0
52674.0,STARLINK-3936,PAYLOAD,2022-08-29 14:00:01,15.08822253,0.0002546,53.2184,176.6593,55.0539,146.3944,-0.00083942,-0.00013617,0.0,0 STARLINK-3936,1 52674U 22053U   22241.58334491 -.00013617  00000-0 -83942-3 0  9993,2 52674  53.2184 176.6593 0002546  55.0539 146.3944 15.08822253 16150,6917.935,95.439,541.561,538.038,0.0
52674.0,STARLINK-3936,PAYLOAD,2022-08-29 22:00:00,15.08835695,0.0002597,53.2185,175.1634,57.178,155.8371,-0.00079591,-0.00012932,0.0,0 STARLINK-3936,1 52674U 22053U   22241.91667824 -.00012932  00000-0 -79591-3 0  9993,2 52674  53.2185 175.1634 0002597  57.1780 155.8371 15.08835695  1302,6917.894,95.438,541.555,537.962,0.0
52674.0,STARLINK-3936,PAYLOAD,2022-08-30 06:00:00,15.0880574,0.0002747,53.2185,173.6686,52.9274,171.6766,0.0034195999999999,0.00054507,0.0,0 STARLINK-3936,1 52674U 22053U   22242.25001157  .00054507  00000-0  34196-2 0  9995,2 52674  53.2185 173.6686 0002747  52.9274 171.6766 15.08805740 16252,6917.985,95.44,541.75,537.95,0.0
52674.0,STARLINK-3936,PAYLOAD,2022-08-30 14:00:01,15.08827398,0.0002625,53.2186,172.1706,56.1878,179.9932,0.0010720999999999,0.0001681,0.0,0 STARLINK-3936,1 52674U 22053U   22242.58334491  .00016810  00000-0  10721-2 0  9994,2 52674  53.2186 172.1706 0002625  56.1878 179.9932 15.08827398  1300,6917.919,95.438,541.6,537.9680000000002,0.0
52674.0,STARLINK-3936,PAYLOAD,2022-08-30 22:00:00,15.08857324,0.0002703999999999,53.2186,170.6747,58.2919,189.4717,-0.00085778,-0.00013921,0.0,0 STARLINK-3936,1 52674U 22053U   22242.91667824 -.00013921  00000-0 -85778-3 0  9997,2 52674  53.2186 170.6747 0002704  58.2919 189.4717 15.08857324 16355,6917.8269999999975,95.436,541.563,537.822,0.0
52674.0,STARLINK-3936,PAYLOAD,2022-08-31 14:00:01,15.08826411,0.0002634,53.2188,167.6816,57.2206,213.7643,0.00069252,0.00010747,0.0,0 STARLINK-3936,1 52674U 22053U   22243.58334491  .00010747  00000-0  69252-3 0  9992,2 52674  53.2188 167.6816 0002634  57.2206 213.7643 15.08826411  1301,6917.922,95.438,541.609,537.965,0.0
52674.0,STARLINK-3936,PAYLOAD,2022-08-31 22:00:00,15.08850749,0.0002696,53.2184,166.183,58.3585,224.2064,-0.0010677999999999,-0.00017248,0.0,0 STARLINK-3936,1 52674U 22053U   22243.91667824 -.00017248  00000-0 -10678-2 0  9990,2 52674  53.2184 166.1830 0002696  58.3585 224.2064 15.08850749  1302,6917.848000000001,95.437,541.578,537.847,0.0
52674.0,STARLINK-3936,PAYLOAD,2022-09-01 04:00:01,15.08821419,0.0002816,53.2188,165.0648,54.8795,146.4483,0.0020967,0.00033223,0.0,0 STARLINK-3936,1 52674U 22053U   22244.16668981  .00033223  00000-0  20967-2 0  9994,2 52674  53.2188 165.0648 0002816  54.8795 146.4483 15.08821419 16543,6917.937,95.439,541.75,537.854,0.0
52674.0,STARLINK-3936,PAYLOAD,2022-09-01 14:00:01,15.08823844,0.0002595,53.2188,163.1926,58.2184,247.6116,0.00028527,4.253e-05,0.0,0 STARLINK-3936,1 52674U 22053U   22244.58335648  .00004253  00000-0  28527-3 0  9993,2 52674  53.2188 163.1926 0002595  58.2184 247.6116 15.08823844  1304,6917.93,95.439,541.59,538.0,0.0
52674.0,STARLINK-3936,PAYLOAD,2022-09-01 22:00:00,15.08843881,0.0002626,53.2188,161.697,58.4841,258.8562,-0.0012186,-0.00019633,0.0,0 STARLINK-3936,1 52674U 22053U   22244.91667824 -.00019633  00000-0 -12186-2 0  9997,2 52674  53.2188 161.6970 0002626  58.4841 258.8562 15.08843881 16659,6917.869000000002,95.437,541.55,537.9169999999998,0.0
52674.0,STARLINK-3936,PAYLOAD,2022-09-02 14:00:01,15.08816605,0.0002579,53.2186,158.7038,60.3278,280.1921,0.0024833999999999,0.00039433,0.0,0 STARLINK-3936,1 52674U 22053U   22245.58334491  .00039433  00000-0  24834-2 0  9993,2 52674  53.2186 158.7038 0002579  60.3278 280.1921 15.08816605  1309,6917.9519999999975,95.439,541.601,538.033,0.0
52674.0,STARLINK-3936,PAYLOAD,2022-09-02 20:00:01,15.08854191,0.0002618,53.2187,157.5819,61.9563,197.2453,-0.00040603,-6.748e-05,0.0,0 STARLINK-3936,1 52674U 22053U   22245.83334491 -.00006748  00000-0 -40603-3 0  9999,2 52674  53.2187 157.5819 0002618  61.9563 197.2453 15.08854191 16791,6917.837,95.437,541.513,537.891,0.0
52674.0,STARLINK-3936,PAYLOAD,2022-09-02 22:00:01,15.08860008,0.000266,53.2187,157.2082,60.2186,291.9459,-0.0015813,-0.00025382,0.0,0 STARLINK-3936,1 52674U 22053U   22245.91668981 -.00025382  00000-0 -15813-2 0  9991,2 52674  53.2187 157.2082 0002660  60.2186 291.9459 15.08860008  1303,6917.819,95.436,541.524,537.844,0.0
52674.0,STARLINK-3936,PAYLOAD,2022-09-03 14:00:01,15.08824475,0.0002504999999999,53.2182,154.2148,62.1818,313.1486,0.0014885999999999,0.00023473,0.0,0 STARLINK-3936,1 52674U 22053U   22246.58334491  .00023473  00000-0  14886-2 0  9997,2 52674  53.2182 154.2148 0002505  62.1818 313.1486 15.08824475  1304,6917.928000000001,95.439,541.526,538.06,0.0
52674.0,STARLINK-3936,PAYLOAD,2022-09-03 22:00:00,15.08855015,0.0002569999999999,53.2184,152.7196,61.3372,325.5763,-0.0014775,-0.00023737,0.0,0 STARLINK-3936,1 52674U 22053U   22246.91667824 -.00023737  00000-0 -14775-2 0  9995,2 52674  53.2184 152.7196 0002570  61.3372 325.5763 15.08855015  1309,6917.834,95.437,541.477,537.922,0.0
52674.0,STARLINK-3936,PAYLOAD,2022-09-04 06:00:00,15.08840019,0.0002611,53.2178,151.2239,58.0817,340.4373,0.00182,0.00028797,0.0,0 STARLINK-3936,1 52674U 22053U   22247.25001157  .00028797  00000-0  18200-2 0  9990,2 52674  53.2178 151.2239 0002611  58.0817 340.4373 15.08840019 17013,6917.88,95.438,541.552,537.939,0.0
52674.0,STARLINK-3936,PAYLOAD,2022-09-04 12:00:00,15.08784614,0.0002578,53.2177,150.0916,60.8842,256.3495,0.0021471,0.00033997,0.0,0 STARLINK-3936,1 52674U 22053U   22247.50001157  .00033997  00000-0  21471-2 0  9990,2 52674  53.2177 150.0916 0002578  60.8842 256.3495 15.08784614 17043,6918.05,95.441,541.698,538.131,0.0
52674.0,STARLINK-3936,PAYLOAD,2022-09-04 14:00:01,15.08807859,0.0002373,53.2179,149.7258,62.6952,347.4913,0.0035688,0.00056919,0.0,0 STARLINK-3936,1 52674U 22053U   22247.58335648  .00056919  00000-0  35688-2 0  9997,2 52674  53.2179 149.7258 0002373  62.6952 347.4913 15.08807859  1300,6917.979,95.44,541.485,538.202,0.0
52674.0,STARLINK-3936,PAYLOAD,2022-09-04 16:00:00,15.08819634,0.0002399999999999,53.218,149.3517,63.8973,79.1171,0.0029679,0.00047238,0.0,0 STARLINK-3936,1 52674U 22053U   22247.66667824  .00047238  00000-0  29679-2 0  9997,2 52674  53.2180 149.3517 0002400  63.8973  79.1171 15.08819634 17073,6917.943,95.439,541.4680000000002,538.1469999999998,0.0
52674.0,STARLINK-3936,PAYLOAD,2022-09-04 20:00:01,15.08856093,0.0002427,53.2182,148.6043,63.3314,265.4683,-0.00057287,-9.399e-05,0.0,0 STARLINK-3936,1 52674U 22053U   22247.83334491 -.00009399  00000-0 -57287-3 0  9992,2 52674  53.2182 148.6043 0002427  63.3314 265.4683 15.08856093  1301,6917.831,95.437,541.375,538.0169999999998,0.0
52674.0,STARLINK-3936,PAYLOAD,2022-09-05 04:00:00,15.08848684,0.0002481,53.2179,147.1094,58.2304,282.1875,0.00031248,4.69e-05,0.0,0 STARLINK-3936,1 52674U 22053U   22248.16667824  .00004690  00000-0  31248-3 0  9994,2 52674  53.2179 147.1094 0002481  58.2304 282.1875 15.08848684 17144,6917.854,95.437,541.435,538.003,0.0
52674.0,STARLINK-3936,PAYLOAD,2022-09-05 14:00:01,15.08833639,0.0002245,53.2178,145.237,62.4876,22.4438,0.0016935,0.00026763,0.0,0 STARLINK-3936,1 52674U 22053U   22248.58334491  .00026763  00000-0  16935-2 0  9991,2 52674  53.2178 145.2370 0002245  62.4876  22.4438 15.08833639  1303,6917.9,95.438,541.318,538.212,0.0
52674.0,STARLINK-3936,PAYLOAD,2022-09-05 20:00:01,15.08855312,0.0002287,53.2182,144.1156,61.9486,301.6704,-0.002666,-0.00042487,0.0,0 STARLINK-3936,1 52674U 22053U   22248.83334491 -.00042487  00000-0 -26660-2 0  9998,2 52674  53.2182 144.1156 0002287  61.9486 301.6704 15.08855312 17245,6917.834,95.437,541.281,538.116,0.0
52674.0,STARLINK-3936,PAYLOAD,2022-09-05 22:00:00,15.08843567,0.0002308,53.218,143.7421,59.8711,36.6519,-0.002131,-0.00034048,0.0,0 STARLINK-3936,1 52674U 22053U   22248.91667824 -.00034048  00000-0 -21310-2 0  9997,2 52674  53.2180 143.7421 0002308  59.8711  36.6519 15.08843567  1302,6917.869000000002,95.437,541.331,538.138,0.0
52674.0,STARLINK-3936,PAYLOAD,2022-09-06 12:00:00,15.08798943,0.0002159,53.2183,141.1226,59.8899,326.9003,0.0021826999999999,0.00034582,0.0,0 STARLINK-3936,1 52674U 22053U   22249.50001157  .00034582  00000-0  21827-2 0  9998,2 52674  53.2183 141.1226 0002159  59.8899 326.9003 15.08798943 17353,6918.005999999999,95.44,541.364,538.377,0.0
